0 COSMOS 2251 DEB
1 38219U 93036BTK 13284.51333512  .00009249  00000-0  17885-2 0   564
2 38219 073.6692 340.2648 0093504 043.9986 020.4923 14.60695172213901
0 COSMOS 2251 DEB
1 38219U 93036BTK 13286.49950468  .00007430  00000-0  14380-2 0   576
2 38219 073.6675 336.3823 0093383 039.9456 024.7678 14.60722550214192
0 COSMOS 2251 DEB
1 38219U 93036BTK 13288.83707299  .00011650  00000-0  22458-2 0   583
2 38219 073.6685 331.8165 0093783 034.8519 077.4635 14.60768272214537
0 COSMOS 2251 DEB
1 38219U 93036BTK 13290.82320753  .00011042  00000-0  21275-2 0   593
2 38219 073.6673 327.9354 0093683 030.6322 082.3098 14.60810114214828
0 COSMOS 2251 DEB
1 38219U 93036BTK 13294.77370281  .00014914  00000-0  28597-2 0   609
2 38219 073.6646 320.2161 0093947 022.3118 338.2582 14.60889624215402
0 COSMOS 2251 DEB
1 38219U 93036BTK 13294.79501280  .00014920  00000-0  28643-2 0   605
2 38219 073.6673 320.1719 0094027 022.2276 090.3752 14.60889857215407
